{"type": "FeatureCollection", "features": [ {"type": "Feature", "properties": {"norad_id": 34014, "name": "COSMOS 2251 DEB", "group": "cosmos-2251-debris", "lat": -23.948943940658314, "lon": -88.62714248413637, "alt_km": 652.8587143761542, "timestamp": "2025-12-13T18:50:04.823738+00:00", "meta": {"OBJECT_NAME": "COSMOS 2251 DEB", "OBJECT_ID": "1993-036GZ", "EPOCH": "2025-12-13T06:27:27.302400", "MEAN_MOTION": 14.73154333, "ECCENTRICITY": 0.0036983, "INCLINATION": 74.017, "RA_OF_ASC_NODE": 279.6923, "ARG_OF_PERICENTER": 59.1955, "MEAN_ANOMALY": 62.4791, "EPHEMERIS_TYPE": 0, "CLASSIFICATION_TYPE": "U", "NORAD_CAT_ID": 34014, "ELEMENT_SET_NO": 999, "REV_AT_EPOCH": 89311, "BSTAR": 0.0017541654, "MEAN_MOTION_DOT": 0.00011418, "MEAN_MOTION_DDOT": 0}, "tle": {"line1": "1 34014U 93036GZ  25347.26906600  .00011418  00000+0  17542-2 0  9998", "line2": "2 34014  74.0170 279.6923 0036983  59.1955  62.4791 14.73154333893119"}}, "geometry": {"type": "Point", "coordinates": [-88.62714248413637, -23.948943940658314]}}, {"type": "Feature", "properties": {"norad_id": 34015, "name": "COSMOS 2251 DEB", "group": "cosmos-2251-debris", "lat": 41.35901780747402, "lon": 172.03692907528205, "alt_km": 701.3880889963302, "timestamp": "2025-12-13T18:50:04.823749+00:00", "meta": {"OBJECT_NAME": "COSMOS 2251 DEB", "OBJECT_ID": "1993-036HA", "EPOCH": "2025-12-13T04:23:07.254240", "MEAN_MOTION": 14.60261485, "ECCENTRICITY": 0.00210368, "INCLINATION": 74.0236, "RA_OF_ASC_NODE": 158.5783, "ARG_OF_PERICENTER": 255.6396, "MEAN_ANOMALY": 224.0537, "EPHEMERIS_TYPE": 0, "CLASSIFICATION_TYPE": "U", "NORAD_CAT_ID": 34015, "ELEMENT_SET_NO": 999, "REV_AT_EPOCH": 88537, "BSTAR": 0.0022933029, "MEAN_MOTION_DOT": 0.00011091, "MEAN_MOTION_DDOT": 0}, "tle": {"line1": "1 34015U 93036HA  25347.18272285  .00011091  00000+0  22933-2 0  9992", "line2": "2 34015  74.0236 158.5783 0021036 255.6396 224.0537 14.60261485885373"}}, "geometry": {"type": "Point", "coordinates": [172.03692907528205, 41.35901780747402]}}, {"type": "Feature", "properties": {"norad_id": 34018, "name": "COSMOS 2251 DEB", "group": "cosmos-2251-debris", "lat": -64.9735017150105, "lon": -51.39404744219339, "alt_km": 1073.1429919354186, "timestamp": "2025-12-13T18:50:04.823759+00:00", "meta": {"OBJECT_NAME": "COSMOS 2251 DEB", "OBJECT_ID": "1993-036HD", "EPOCH": "2025-12-12T16:10:12.222912", "MEAN_MOTION": 13.81071901, "ECCENTRICITY": 0.02636729, "INCLINATION": 73.8778, "RA_OF_ASC_NODE": 92.2075, "ARG_OF_PERICENTER": 128.1105, "MEAN_ANOMALY": 358.1578, "EPHEMERIS_TYPE": 0, "CLASSIFICATION_TYPE": "U", "NORAD_CAT_ID": 34018, "ELEMENT_SET_NO": 999, "REV_AT_EPOCH": 84656, "BSTAR": 0.00076165071, "MEAN_MOTION_DOT": 1.026e-05, "MEAN_MOTION_DDOT": 0}, "tle": {"line1": "1 34018U 93036HD  25346.67375258  .00001026  00000+0  76165-3 0  9996", "line2": "2 34018  73.8778  92.2075 0263672 128.1105 358.1578 13.81071901846564"}}, "geometry": {"type": "Point", "coordinates": [-51.39404744219339, -64.9735017150105]}}, {"type": "Feature", "properties": {"norad_id": 34019, "name": "COSMOS 2251 DEB", "group": "cosmos-2251-debris", "lat": -30.383127853828597, "lon": -121.4678776521011, "alt_km": 741.5345235368331, "timestamp": "2025-12-13T18:50:04.823769+00:00", "meta": {"OBJECT_NAME": "COSMOS 2251 DEB", "OBJECT_ID": "1993-036HE", "EPOCH": "2025-12-13T06:25:45.257088", "MEAN_MOTION": 14.33943468, "ECCENTRICITY": 0.00626654, "INCLINATION": 73.9549, "RA_OF_ASC_NODE": 49.7684, "ARG_OF_PERICENTER": 230.9248, "MEAN_ANOMALY": 193.7086, "EPHEMERIS_TYPE": 0, "CLASSIFICATION_TYPE": "U", "NORAD_CAT_ID": 34019, "ELEMENT_SET_NO": 999, "REV_AT_EPOCH": 87528, "BSTAR": 0.0013672697, "MEAN_MOTION_DOT": 3.873e-05, "MEAN_MOTION_DDOT": 0}, "tle": {"line1": "1 34019U 93036HE  25347.26788492  .00003873  00000+0  13673-2 0  9997", "line2": "2 34019  73.9549  49.7684 0062665 230.9248 193.7086 14.33943468875286"}}, "geometry": {"type": "Point", "coordinates": [-121.4678776521011, -30.383127853828597]}}, {"type": "Feature", "properties": {"norad_id": 34021, "name": "COSMOS 2251 DEB", "group": "cosmos-2251-debris", "lat": 10.892851356565071, "lon": 131.02447986663398, "alt_km": 729.3900283551793, "timestamp": "2025-12-13T18:50:04.823780+00:00", "meta": {"OBJECT_NAME": "COSMOS 2251 DEB", "OBJECT_ID": "1993-036HG", "EPOCH": "2025-12-12T20:17:38.625216", "MEAN_MOTION": 14.49949272, "ECCENTRICITY": 0.00209286, "INCLINATION": 74.0358, "RA_OF_ASC_NODE": 129.6294, "ARG_OF_PERICENTER": 273.679, "MEAN_ANOMALY": 237.1079, "EPHEMERIS_TYPE": 0, "CLASSIFICATION_TYPE": "U", "NORAD_CAT_ID": 34021, "ELEMENT_SET_NO": 999, "REV_AT_EPOCH": 88631, "BSTAR": 0.00081473165, "MEAN_MOTION_DOT": 3.134e-05, "MEAN_MOTION_DDOT": 0}, "tle": {"line1": "1 34021U 93036HG  25346.84558594  .00003134  00000+0  81473-3 0  9995", "line2": "2 34021  74.0358 129.6294 0020928 273.6790 237.1079 14.49949272886313"}}, "geometry": {"type": "Point", "coordinates": [131.02447986663398, 10.892851356565071]}}, {"type": "Feature", "properties": {"norad_id": 34022, "name": "COSMOS 2251 DEB", "group": "cosmos-2251-debris", "lat": 32.22496681180106, "lon": 78.48716257474412, "alt_km": 775.772915115268, "timestamp": "2025-12-13T18:50:04.823791+00:00", "meta": {"OBJECT_NAME": "COSMOS 2251 DEB", "OBJECT_ID": "1993-036HH", "EPOCH": "2025-12-13T05:33:33.816960", "MEAN_MOTION": 14.38965232, "ECCENTRICITY": 0.00227445, "INCLINATION": 74.0542, "RA_OF_ASC_NODE": 269.8885, "ARG_OF_PERICENTER": 334.7644, "MEAN_ANOMALY": 187.1833, "EPHEMERIS_TYPE": 0, "CLASSIFICATION_TYPE": "U", "NORAD_CAT_ID": 34022, "ELEMENT_SET_NO": 999, "REV_AT_EPOCH": 88202, "BSTAR": 0.00039037711, "MEAN_MOTION_DOT": 1.181e-05, "MEAN_MOTION_DDOT": 0}, "tle": {"line1": "1 34022U 93036HH  25347.23164140  .00001181  00000+0  39038-3 0  9990", "line2": "2 34022  74.0542 269.8885 0022744 334.7644 187.1833 14.38965232882025"}}, "geometry": {"type": "Point", "coordinates": [78.48716257474412, 32.22496681180106]}}, {"type": "Feature", "properties": {"norad_id": 34023, "name": "COSMOS 2251 DEB", "group": "cosmos-2251-debris", "lat": 65.94906323130313, "lon": -70.25931098031558, "alt_km": 749.0337240508079, "timestamp": "2025-12-13T18:50:04.823801+00:00", "meta": {"OBJECT_NAME": "COSMOS 2251 DEB", "OBJECT_ID": "1993-036HJ", "EPOCH": "2025-12-13T04:02:56.392800", "MEAN_MOTION": 14.40562977, "ECCENTRICITY": 0.00184874, "INCLINATION": 74.0249, "RA_OF_ASC_NODE": 250.9493, "ARG_OF_PERICENTER": 346.5399, "MEAN_ANOMALY": 131.403, "EPHEMERIS_TYPE": 0, "CLASSIFICATION_TYPE": "U", "NORAD_CAT_ID": 34023, "ELEMENT_SET_NO": 999, "REV_AT_EPOCH": 88220, "BSTAR": 0.0005125192, "MEAN_MOTION_DOT": 1.61e-05, "MEAN_MOTION_DDOT": 0}, "tle": {"line1": "1 34023U 93036HJ  25347.16870825  .00001610  00000+0  51252-3 0  9996", "line2": "2 34023  74.0249 250.9493 0018487 346.5399 131.4030 14.40562977882206"}}, "geometry": {"type": "Point", "coordinates": [-70.25931098031558, 65.94906323130313]}}, {"type": "Feature", "properties": {"norad_id": 34024, "name": "COSMOS 2251 DEB", "group": "cosmos-2251-debris", "lat": 57.93356968965962, "lon": -18.753876891109126, "alt_km": 759.6527978342556, "timestamp": "2025-12-13T18:50:04.823812+00:00", "meta": {"OBJECT_NAME": "COSMOS 2251 DEB", "OBJECT_ID": "1993-036HK", "EPOCH": "2025-12-13T07:22:20.078976", "MEAN_MOTION": 14.35397816, "ECCENTRICITY": 0.00210531, "INCLINATION": 74.0465, "RA_OF_ASC_NODE": 314.9532, "ARG_OF_PERICENTER": 5.5324, "MEAN_ANOMALY": 109.1489, "EPHEMERIS_TYPE": 0, "CLASSIFICATION_TYPE": "U", "NORAD_CAT_ID": 34024, "ELEMENT_SET_NO": 999, "REV_AT_EPOCH": 88032, "BSTAR": 0.00032276433, "MEAN_MOTION_DOT": 9.03e-06, "MEAN_MOTION_DDOT": 0}, "tle": {"line1": "1 34024U 93036HK  25347.30717684  .00000903  00000+0  32276-3 0  9995", "line2": "2 34024  74.0465 314.9532 0021053   5.5324 109.1489 14.35397816880328"}}, "geometry": {"type": "Point", "coordinates": [-18.753876891109126, 57.93356968965962]}}, {"type": "Feature", "properties": {"norad_id": 34026, "name": "COSMOS 2251 DEB", "group": "cosmos-2251-debris", "lat": 41.311918727538675, "lon": -9.616031663160546, "alt_km": 1258.2431821110458, "timestamp": "2025-12-13T18:50:04.823822+00:00", "meta": {"OBJECT_NAME": "COSMOS 2251 DEB", "OBJECT_ID": "1993-036HM", "EPOCH": "2025-12-13T01:19:55.771968", "MEAN_MOTION": 13.65309809, "ECCENTRICITY": 0.03505699, "INCLINATION": 73.7668, "RA_OF_ASC_NODE": 336.7604, "ARG_OF_PERICENTER": 206.729, "MEAN_ANOMALY": 214.935, "EPHEMERIS_TYPE": 0, "CLASSIFICATION_TYPE": "U", "NORAD_CAT_ID": 34026, "ELEMENT_SET_NO": 999, "REV_AT_EPOCH": 83536, "BSTAR": 0.00099244507, "MEAN_MOTION_DOT": 1.204e-05, "MEAN_MOTION_DDOT": 0}, "tle": {"line1": "1 34026U 93036HM  25347.05550662  .00001204  00000+0  99245-3 0  9994", "line2": "2 34026  73.7668 336.7604 0350569 206.7290 214.9350 13.65309809835360"}}, "geometry": {"type": "Point", "coordinates": [-9.616031663160546, 41.311918727538675]}}, {"type": "Feature", "properties": {"norad_id": 34028, "name": "COSMOS 2251 DEB", "group": "cosmos-2251-debris", "lat": -69.70112135035168, "lon": -142.9404874625003, "alt_km": 1463.7114363771452, "timestamp": "2025-12-13T18:50:04.823834+00:00", "meta": {"OBJECT_NAME": "COSMOS 2251 DEB", "OBJECT_ID": "1993-036HP", "EPOCH": "2025-12-13T06:50:05.019648", "MEAN_MOTION": 13.20623307, "ECCENTRICITY": 0.05436819, "INCLINATION": 73.8832, "RA_OF_ASC_NODE": 346.4146, "ARG_OF_PERICENTER": 124.1698, "MEAN_ANOMALY": 272.4483, "EPHEMERIS_TYPE": 0, "CLASSIFICATION_TYPE": "U", "NORAD_CAT_ID": 34028, "ELEMENT_SET_NO": 999, "REV_AT_EPOCH": 81015, "BSTAR": 0.00045480547, "MEAN_MOTION_DOT": 3.85e-06, "MEAN_MOTION_DDOT": 0}, "tle": {"line1": "1 34028U 93036HP  25347.28478032  .00000385  00000+0  45481-3 0  9993", "line2": "2 34028  73.8832 346.4146 0543681 124.1698 272.4483 13.20623307810158"}}, "geometry": {"type": "Point", "coordinates": [-142.9404874625003, -69.70112135035168]}}]}